SL-3 R/B                
1 13403U 82079B   26035.78416905  .00006008  00000+0  24271-3 0  9995
2 13403  81.1436 231.9205 0024202 278.2818  81.5670 15.24319477372680
SL-14 R/B               
1 13553U 82092B   26035.81474661  .00000753  00000+0  81757-4 0  9997
2 13553  82.5699 172.1386 0021547  53.0440  99.5513 14.86628509324045
SL-3 R/B                
1 13819U 83010B   26035.74629226  .00016096  00000+0  33645-3 0  9993
2 13819  81.1017  42.6019 0017658 156.4213 203.7844 15.45186798352858
SL-3 R/B                
1 14208U 83075B   26035.76557829  .00013975  00000+0  37847-3 0  9999
2 14208  97.6128  39.1237 0021713 353.2718   6.8231 15.37550081325092
COSMOS 1536             
1 14699U 84013A   26035.68478502  .00008027  00000+0  33528-3 0  9991
2 14699  82.5480 140.6391 0015134  43.0967 317.1451 15.23375221267597
SL-14 R/B               
1 14820U 84027B   26035.69743901  .00000550  00000+0  60043-4 0  9997
2 14820  82.5405 275.9618 0019538  83.2688 277.0751 14.85943710242739
SL-8 R/B                
1 15483U 85006B   26035.55948745  .00000333  00000+0  11911-3 0  9997
2 15483  74.0475 322.1094 0019581 246.1418 286.7212 14.37765904149267
SL-12 R/B(2)            
1 15772U 85042D   26035.71003941  .00000091  00000+0  62475-4 0  9999
2 15772  71.1084 157.4033 0035197 180.7098 281.9968 14.21972483109707
SL-14 R/B               
1 15945U 85069B   26035.75952507  .00000611  00000+0  66361-4 0  9991
2 15945  82.5239  55.9057 0017456 304.4148  55.5417 14.86393779167944
SL-16 R/B               
1 16182U 85097B   26035.71809328  .00000108  00000+0  78054-4 0  9997
2 16182  71.0013 209.9641 0009431 298.3146  72.4423 14.16595718 82563
SL-14 R/B               
1 16496U 86006B   26035.74523181  .00000966  00000+0  99915-4 0  9990
2 16496  82.5274 290.7445 0077291  23.0110 337.4538 14.86768375144311
COSMOS 1743             
1 16719U 86034A   26035.67900001  .00035894  00000+0  51132-3 0  9997
2 16719  82.5331 108.4087 0005238  62.5999 297.5788 15.56144346175114
