CCSDS_OMM_VERS = 2.0
CREATION_DATE  = 
ORIGINATOR     = 

OBJECT_NAME    = SL-3 R/B
OBJECT_ID      = 1982-079B
CENTER_NAME    = EARTH
REF_FRAME      = TEME
TIME_SYSTEM    = UTC
MEAN_ELEMENT_THEORY = SGP/SGP4

EPOCH          = 2026-02-04T18:49:12.205920
MEAN_MOTION    = 15.24319477
ECCENTRICITY   = .0024202
INCLINATION    = 81.1436
RA_OF_ASC_NODE = 231.9205
ARG_OF_PERICENTER = 278.2818
MEAN_ANOMALY   = 81.5670

EPHEMERIS_TYPE = 0
CLASSIFICATION_TYPE = U
NORAD_CAT_ID   = 13403
ELEMENT_SET_NO = 999
REV_AT_EPOCH   = 37268
BSTAR          = .24271E-3
MEAN_MOTION_DOT = .6008E-4
MEAN_MOTION_DDOT = 0

CCSDS_OMM_VERS = 2.0
CREATION_DATE  = 
ORIGINATOR     = 

OBJECT_NAME    = SL-14 R/B
OBJECT_ID      = 1982-092B
CENTER_NAME    = EARTH
REF_FRAME      = TEME
TIME_SYSTEM    = UTC
MEAN_ELEMENT_THEORY = SGP/SGP4

EPOCH          = 2026-02-04T19:33:14.107104
MEAN_MOTION    = 14.86628509
ECCENTRICITY   = .0021547
INCLINATION    = 82.5699
RA_OF_ASC_NODE = 172.1386
ARG_OF_PERICENTER = 53.0440
MEAN_ANOMALY   = 99.5513

EPHEMERIS_TYPE = 0
CLASSIFICATION_TYPE = U
NORAD_CAT_ID   = 13553
ELEMENT_SET_NO = 999
REV_AT_EPOCH   = 32404
BSTAR          = .81757E-4
MEAN_MOTION_DOT = .753E-5
MEAN_MOTION_DDOT = 0

CCSDS_OMM_VERS = 2.0
CREATION_DATE  = 
ORIGINATOR     = 

OBJECT_NAME    = SL-3 R/B
OBJECT_ID      = 1983-010B
CENTER_NAME    = EARTH
REF_FRAME      = TEME
TIME_SYSTEM    = UTC
MEAN_ELEMENT_THEORY = SGP/SGP4

EPOCH          = 2026-02-04T17:54:39.651264
MEAN_MOTION    = 15.45186798
ECCENTRICITY   = .0017658
INCLINATION    = 81.1017
RA_OF_ASC_NODE = 42.6019
ARG_OF_PERICENTER = 156.4213
MEAN_ANOMALY   = 203.7844

EPHEMERIS_TYPE = 0
CLASSIFICATION_TYPE = U
NORAD_CAT_ID   = 13819
ELEMENT_SET_NO = 999
REV_AT_EPOCH   = 35285
BSTAR          = .33645E-3
MEAN_MOTION_DOT = .16096E-3
MEAN_MOTION_DDOT = 0

CCSDS_OMM_VERS = 2.0
CREATION_DATE  = 
ORIGINATOR     = 

OBJECT_NAME    = SL-3 R/B
OBJECT_ID      = 1983-075B
CENTER_NAME    = EARTH
REF_FRAME      = TEME
TIME_SYSTEM    = UTC
MEAN_ELEMENT_THEORY = SGP/SGP4

EPOCH          = 2026-02-04T18:22:25.964256
MEAN_MOTION    = 15.37550081
ECCENTRICITY   = .0021713
INCLINATION    = 97.6128
RA_OF_ASC_NODE = 39.1237
ARG_OF_PERICENTER = 353.2718
MEAN_ANOMALY   = 6.8231

EPHEMERIS_TYPE = 0
CLASSIFICATION_TYPE = U
NORAD_CAT_ID   = 14208
ELEMENT_SET_NO = 999
REV_AT_EPOCH   = 32509
BSTAR          = .37847E-3
MEAN_MOTION_DOT = .13975E-3
MEAN_MOTION_DDOT = 0

CCSDS_OMM_VERS = 2.0
CREATION_DATE  = 
ORIGINATOR     = 

OBJECT_NAME    = COSMOS 1536
OBJECT_ID      = 1984-013A
CENTER_NAME    = EARTH
REF_FRAME      = TEME
TIME_SYSTEM    = UTC
MEAN_ELEMENT_THEORY = SGP/SGP4

EPOCH          = 2026-02-04T16:26:05.425728
MEAN_MOTION    = 15.23375221
ECCENTRICITY   = .0015134
INCLINATION    = 82.5480
RA_OF_ASC_NODE = 140.6391
ARG_OF_PERICENTER = 43.0967
MEAN_ANOMALY   = 317.1451

EPHEMERIS_TYPE = 0
CLASSIFICATION_TYPE = U
NORAD_CAT_ID   = 14699
ELEMENT_SET_NO = 999
REV_AT_EPOCH   = 26759
BSTAR          = .33528E-3
MEAN_MOTION_DOT = .8027E-4
MEAN_MOTION_DDOT = 0

CCSDS_OMM_VERS = 2.0
CREATION_DATE  = 
ORIGINATOR     = 

OBJECT_NAME    = SL-14 R/B
OBJECT_ID      = 1984-027B
CENTER_NAME    = EARTH
REF_FRAME      = TEME
TIME_SYSTEM    = UTC
MEAN_ELEMENT_THEORY = SGP/SGP4

EPOCH          = 2026-02-04T16:44:18.730464
MEAN_MOTION    = 14.85943710
ECCENTRICITY   = .0019538
INCLINATION    = 82.5405
RA_OF_ASC_NODE = 275.9618
ARG_OF_PERICENTER = 83.2688
MEAN_ANOMALY   = 277.0751

EPHEMERIS_TYPE = 0
CLASSIFICATION_TYPE = U
NORAD_CAT_ID   = 14820
ELEMENT_SET_NO = 999
REV_AT_EPOCH   = 24273
BSTAR          = .60043E-4
MEAN_MOTION_DOT = .55E-5
MEAN_MOTION_DDOT = 0

CCSDS_OMM_VERS = 2.0
CREATION_DATE  = 
ORIGINATOR     = 

OBJECT_NAME    = SL-8 R/B
OBJECT_ID      = 1985-006B
CENTER_NAME    = EARTH
REF_FRAME      = TEME
TIME_SYSTEM    = UTC
MEAN_ELEMENT_THEORY = SGP/SGP4

EPOCH          = 2026-02-04T13:25:39.715680
MEAN_MOTION    = 14.37765904
ECCENTRICITY   = .0019581
INCLINATION    = 74.0475
RA_OF_ASC_NODE = 322.1094
ARG_OF_PERICENTER = 246.1418
MEAN_ANOMALY   = 286.7212

EPHEMERIS_TYPE = 0
CLASSIFICATION_TYPE = U
NORAD_CAT_ID   = 15483
ELEMENT_SET_NO = 999
REV_AT_EPOCH   = 14926
BSTAR          = .11911E-3
MEAN_MOTION_DOT = .333E-5
MEAN_MOTION_DDOT = 0

CCSDS_OMM_VERS = 2.0
CREATION_DATE  = 
ORIGINATOR     = 

OBJECT_NAME    = SL-12 R/B(2)
OBJECT_ID      = 1985-042D
CENTER_NAME    = EARTH
REF_FRAME      = TEME
TIME_SYSTEM    = UTC
MEAN_ELEMENT_THEORY = SGP/SGP4

EPOCH          = 2026-02-04T17:02:27.405024
MEAN_MOTION    = 14.21972483
ECCENTRICITY   = .0035197
INCLINATION    = 71.1084
RA_OF_ASC_NODE = 157.4033
ARG_OF_PERICENTER = 180.7098
MEAN_ANOMALY   = 281.9968

EPHEMERIS_TYPE = 0
CLASSIFICATION_TYPE = U
NORAD_CAT_ID   = 15772
ELEMENT_SET_NO = 999
REV_AT_EPOCH   = 10970
BSTAR          = .62475E-4
MEAN_MOTION_DOT = .91E-6
MEAN_MOTION_DDOT = 0

CCSDS_OMM_VERS = 2.0
CREATION_DATE  = 
ORIGINATOR     = 

OBJECT_NAME    = SL-14 R/B
OBJECT_ID      = 1985-069B
CENTER_NAME    = EARTH
REF_FRAME      = TEME
TIME_SYSTEM    = UTC
MEAN_ELEMENT_THEORY = SGP/SGP4

EPOCH          = 2026-02-04T18:13:42.966048
MEAN_MOTION    = 14.86393779
ECCENTRICITY   = .0017456
INCLINATION    = 82.5239
RA_OF_ASC_NODE = 55.9057
ARG_OF_PERICENTER = 304.4148
MEAN_ANOMALY   = 55.5417

EPHEMERIS_TYPE = 0
CLASSIFICATION_TYPE = U
NORAD_CAT_ID   = 15945
ELEMENT_SET_NO = 999
REV_AT_EPOCH   = 16794
BSTAR          = .66361E-4
MEAN_MOTION_DOT = .611E-5
MEAN_MOTION_DDOT = 0

CCSDS_OMM_VERS = 2.0
CREATION_DATE  = 
ORIGINATOR     = 

OBJECT_NAME    = SL-16 R/B
OBJECT_ID      = 1985-097B
CENTER_NAME    = EARTH
REF_FRAME      = TEME
TIME_SYSTEM    = UTC
MEAN_ELEMENT_THEORY = SGP/SGP4

EPOCH          = 2026-02-04T17:14:03.259392
MEAN_MOTION    = 14.16595718
ECCENTRICITY   = .0009431
INCLINATION    = 71.0013
RA_OF_ASC_NODE = 209.9641
ARG_OF_PERICENTER = 298.3146
MEAN_ANOMALY   = 72.4423

EPHEMERIS_TYPE = 0
CLASSIFICATION_TYPE = U
NORAD_CAT_ID   = 16182
ELEMENT_SET_NO = 999
REV_AT_EPOCH   = 8256
BSTAR          = .78054E-4
MEAN_MOTION_DOT = .108E-5
MEAN_MOTION_DDOT = 0

CCSDS_OMM_VERS = 2.0
CREATION_DATE  = 
ORIGINATOR     = 

OBJECT_NAME    = SL-14 R/B
OBJECT_ID      = 1986-006B
CENTER_NAME    = EARTH
REF_FRAME      = TEME
TIME_SYSTEM    = UTC
MEAN_ELEMENT_THEORY = SGP/SGP4

EPOCH          = 2026-02-04T17:53:08.028384
MEAN_MOTION    = 14.86768375
ECCENTRICITY   = .0077291
INCLINATION    = 82.5274
RA_OF_ASC_NODE = 290.7445
ARG_OF_PERICENTER = 23.0110
MEAN_ANOMALY   = 337.4538

EPHEMERIS_TYPE = 0
CLASSIFICATION_TYPE = U
NORAD_CAT_ID   = 16496
ELEMENT_SET_NO = 999
REV_AT_EPOCH   = 14431
BSTAR          = .99915E-4
MEAN_MOTION_DOT = .966E-5
MEAN_MOTION_DDOT = 0

CCSDS_OMM_VERS = 2.0
CREATION_DATE  = 
ORIGINATOR     = 

OBJECT_NAME    = COSMOS 1743
OBJECT_ID      = 1986-034A
CENTER_NAME    = EARTH
REF_FRAME      = TEME
TIME_SYSTEM    = UTC
MEAN_ELEMENT_THEORY = SGP/SGP4

EPOCH          = 2026-02-04T16:17:45.600864
MEAN_MOTION    = 15.56144346
ECCENTRICITY   = .0005238
INCLINATION    = 82.5331
RA_OF_ASC_NODE = 108.4087
ARG_OF_PERICENTER = 62.5999
MEAN_ANOMALY   = 297.5788

EPHEMERIS_TYPE = 0
CLASSIFICATION_TYPE = U
NORAD_CAT_ID   = 16719
ELEMENT_SET_NO = 999
REV_AT_EPOCH   = 17511
BSTAR          = .51132E-3
MEAN_MOTION_DOT = .35894E-3
MEAN_MOTION_DDOT = 0

